OBJECT_NAME,OBJECT_ID,EPOCH,MEAN_MOTION,ECCENTRICITY,INCLINATION,RA_OF_ASC_NODE,ARG_OF_PERICENTER,MEAN_ANOMALY,EPHEMERIS_TYPE,CLASSIFICATION_TYPE,NORAD_CAT_ID,ELEMENT_SET_NO,REV_AT_EPOCH,BSTAR,MEAN_MOTION_DOT,MEAN_MOTION_DDOT
ONEWEB-0638,2023-029G,2026-07-13T19:20:33.374112,13.14504330,.0001379,87.8952,284.4472,101.4118,258.7167,0,U,55802,999,16289,-.36528E-3,-.123E-5,0
ONEWEB-0639,2023-029H,2026-07-13T19:05:07.864224,13.19726078,.0002581,87.9184,299.6775,121.3508,238.7877,0,U,55803,999,16241,.7342E-4,.42E-6,0
ONEWEB-0640,2023-029J,2026-07-13T17:44:38.767776,13.14502500,.0001479,87.8959,284.4501,119.6981,240.4296,0,U,55804,999,16290,-.53617E-3,-.186E-5,0
ONEWEB-0641,2023-029K,2026-07-13T18:58:18.756768,13.19726485,.000212,87.9192,299.6695,104.8151,255.3217,0,U,55805,999,16242,-.46488E-4,-.6E-7,0
ONEWEB-0642,2023-029L,2026-07-13T18:51:30.153024,13.19767052,.0002452,87.9184,299.6807,110.0851,250.0546,0,U,55806,999,16241,-.19987E-1,-.7987E-4,0
ONEWEB-0643,2023-029M,2026-07-13T17:01:16.170816,13.14502340,.0002633,87.8961,284.4430,115.7664,244.3738,0,U,55807,999,16287,.55446E-3,.218E-5,0
ONEWEB-0644,2023-029N,2026-07-13T20:33:51.859008,13.19725695,.0002278,87.9181,299.6673,107.2915,252.8467,0,U,55808,999,16242,.10377E-3,.54E-6,0
ONEWEB-0645,2023-029P,2026-07-13T19:16:31.601856,13.19725517,.0002023,87.9184,299.6749,121.3788,238.7543,0,U,55809,999,16241,.18165E-3,.86E-6,0
ONEWEB-0646,2023-029Q,2026-07-13T19:41:32.059680,13.19726991,.0002236,87.9187,299.6711,105.9276,254.2103,0,U,55810,999,16240,-.49311E-4,-.7E-7,0
ONEWEB-0648,2023-029R,2026-07-13T18:05:12.000768,13.14503602,.0002319,87.8971,284.4101,123.7851,236.3500,0,U,55811,999,16288,-.21557E-3,-.67E-6,0
ONEWEB-0649,2023-029S,2026-07-13T20:17:55.150080,13.19726654,.0002031,87.9184,299.6647,108.7490,251.3863,0,U,55812,999,16244,-.41964E-4,-.4E-7,0
ONEWEB-0650,2023-029T,2026-07-13T20:11:06.078912,13.19726170,.0002459,87.9186,299.6675,112.2061,247.9333,0,U,55813,999,16241,-.1522E-5,.12E-6,0
ONEWEB-0652,2023-029U,2026-07-13T17:37:47.828640,13.14502392,.0002005,87.8970,284.4210,95.3378,264.7981,0,U,55814,999,16285,-.55651E-3,-.194E-5,0
ONEWEB-0653,2023-029V,2026-07-13T19:04:34.093056,13.14501871,.0001948,87.8976,284.4064,99.6842,260.4508,0,U,55815,999,16289,.72229E-4,.4E-6,0
ONEWEB-0654,2023-029W,2026-07-13T18:57:43.059744,13.14501548,.0001852,87.8978,284.4033,88.6547,271.4794,0,U,55816,999,16291,.28356E-3,.118E-5,0
ONEWEB-0656,2023-029X,2026-07-13T17:15:45.284832,13.20770090,.0001894,87.9185,269.1446,89.4263,270.7087,0,U,55817,999,16465,-.11924E-3,-.35E-6,0
ONEWEB-0657,2023-029Y,2026-07-13T20:04:19.280064,13.19726733,.0002269,87.9185,299.6672,79.8609,280.2779,0,U,55818,999,16242,.45382E-4,.31E-6,0
ONEWEB-0658,2023-029Z,2026-07-13T19:57:28.297728,13.19726249,.0002346,87.9202,299.6448,107.1108,253.0282,0,U,55819,999,16243,.10192E-4,.17E-6,0
ONEWEB-0660,2023-029AA,2026-07-13T18:25:44.944320,13.14501757,.000193,87.8979,284.4040,107.6348,252.4992,0,U,55820,999,16289,.39872E-3,.161E-5,0
ONEWEB-0661,2023-029AB,2026-07-13T19:15:59.721120,13.14502448,.0001815,87.8961,284.4375,105.2838,254.8492,0,U,55821,999,16288,-.34529E-3,-.115E-5,0
ONEWEB-0662,2023-029AC,2026-07-13T18:16:37.913088,13.14479732,.0002199,87.8960,284.4516,116.6209,243.5146,0,U,55822,999,16292,.12063E-1,.4486E-4,0
ONEWEB-0663,2023-029AD,2026-07-13T18:01:26.209056,13.20871009,.0002128,87.9171,269.2118,128.8156,231.3168,0,U,55823,999,16465,-.49067E-4,-.7E-7,0
ONEWEB-0664,2023-029AE,2026-07-13T16:56:23.144352,13.20772235,.0001706,87.9170,269.1965,95.7546,264.3781,0,U,55824,999,16464,-.33112E-4,0,0
ONEWEB-0665,2023-029AF,2026-07-13T19:11:25.749312,13.14502425,.0002005,87.8965,284.4185,109.7907,250.3439,0,U,55825,999,16290,-.29603E-3,-.97E-6,0
ONEWEB-0666,2023-029AG,2026-07-13T18:35:45.069216,13.20772517,.0002578,87.9174,269.1721,84.7916,275.3511,0,U,55826,999,16466,.13181E-3,.67E-6,0
ONEWEB-0667,2023-029AH,2026-07-13T18:28:28.604064,13.20773128,.0001993,87.9198,269.1344,101.8345,258.3012,0,U,55827,999,16465,.12332E-3,.63E-6,0
ONEWEB-0669,2023-029AJ,2026-07-13T18:21:11.927232,13.20770889,.0001711,87.9189,269.1453,86.7135,273.4194,0,U,55828,999,16465,-.60507E-3,-.233E-5,0
ONEWEB-0670,2023-029AK,2026-07-13T18:39:27.855072,13.14501740,.0001667,87.8968,284.4390,101.6097,258.5219,0,U,55829,999,16292,.65073E-3,.254E-5,0
ONEWEB-0671,2023-029AL,2026-07-13T19:50:38.099040,13.19726302,.0001938,87.9193,299.6696,103.7160,256.4188,0,U,55830,999,16241,-.3201E-4,0,0
ONEWEB-0672,2023-029AM,2026-07-13T18:13:56.390016,13.20769383,.0002087,87.9192,269.1396,93.7469,266.3903,0,U,55831,999,16465,-.58287E-4,-.11E-6,0
