ONEWEB-0638             
1 55802U 23029G   26194.80594183 -.00000123  00000+0 -36528-3 0  9990
2 55802  87.8952 284.4472 0001379 101.4118 258.7167 13.14504330162894
ONEWEB-0639             
1 55803U 23029H   26194.79522991  .00000042  00000+0  73420-4 0  9998
2 55803  87.9184 299.6775 0002581 121.3508 238.7877 13.19726078162411
ONEWEB-0640             
1 55804U 23029J   26194.73933759 -.00000186  00000+0 -53617-3 0  9997
2 55804  87.8959 284.4501 0001479 119.6981 240.4296 13.14502500162906
ONEWEB-0641             
1 55805U 23029K   26194.79049487 -.00000006  00000+0 -46488-4 0  9990
2 55805  87.9192 299.6695 0002120 104.8151 255.3217 13.19726485162428
ONEWEB-0642             
1 55806U 23029L   26194.78576566 -.00007987  00000+0 -19987-1 0  9999
2 55806  87.9184 299.6807 0002452 110.0851 250.0546 13.19767052162410
ONEWEB-0643             
1 55807U 23029M   26194.70921494  .00000218  00000+0  55446-3 0  9996
2 55807  87.8961 284.4430 0002633 115.7664 244.3738 13.14502340162873
ONEWEB-0644             
1 55808U 23029N   26194.85685022  .00000054  00000+0  10377-3 0  9999
2 55808  87.9181 299.6673 0002278 107.2915 252.8467 13.19725695162425
ONEWEB-0645             
1 55809U 23029P   26194.80314354  .00000086  00000+0  18165-3 0  9990
2 55809  87.9184 299.6749 0002023 121.3788 238.7543 13.19725517162416
ONEWEB-0646             
1 55810U 23029Q   26194.82050995 -.00000007  00000+0 -49311-4 0  9995
2 55810  87.9187 299.6711 0002236 105.9276 254.2103 13.19726991162407
ONEWEB-0648             
1 55811U 23029R   26194.75361112 -.00000067  00000+0 -21557-3 0  9991
2 55811  87.8971 284.4101 0002319 123.7851 236.3500 13.14503602162883
ONEWEB-0649             
1 55812U 23029S   26194.84577720 -.00000004  00000+0 -41964-4 0  9992
2 55812  87.9184 299.6647 0002031 108.7490 251.3863 13.19726654162447
ONEWEB-0650             
1 55813U 23029T   26194.84104258  .00000012  00000+0 -15220-5 0  9990
2 55813  87.9186 299.6675 0002459 112.2061 247.9333 13.19726170162412
ONEWEB-0652             
1 55814U 23029U   26194.73458135 -.00000194  00000+0 -55651-3 0  9997
2 55814  87.8970 284.4210 0002005  95.3378 264.7981 13.14502392162856
ONEWEB-0653             
1 55815U 23029V   26194.79483904  .00000040  00000+0  72229-4 0  9995
2 55815  87.8976 284.4064 0001948  99.6842 260.4508 13.14501871162891
ONEWEB-0654             
1 55816U 23029W   26194.79008171  .00000118  00000+0  28356-3 0  9992
2 55816  87.8978 284.4033 0001852  88.6547 271.4794 13.14501548162917
ONEWEB-0656             
1 55817U 23029X   26194.71927413 -.00000035  00000+0 -11924-3 0  9997
2 55817  87.9185 269.1446 0001894  89.4263 270.7087 13.20770090164654
ONEWEB-0657             
1 55818U 23029Y   26194.83633426  .00000031  00000+0  45382-4 0  9999
2 55818  87.9185 299.6672 0002269  79.8609 280.2779 13.19726733162428
ONEWEB-0658             
1 55819U 23029Z   26194.83157752  .00000017  00000+0  10192-4 0  9998
2 55819  87.9202 299.6448 0002346 107.1108 253.0282 13.19726249162435
ONEWEB-0660             
1 55820U 23029AA  26194.76788130  .00000161  00000+0  39872-3 0  9997
2 55820  87.8979 284.4040 0001930 107.6348 252.4992 13.14501757162897
ONEWEB-0661             
1 55821U 23029AB  26194.80277455 -.00000115  00000+0 -34529-3 0  9991
2 55821  87.8961 284.4375 0001815 105.2838 254.8492 13.14502448162888
ONEWEB-0662             
1 55822U 23029AC  26194.76154992  .00004486  00000+0  12063-1 0  9997
2 55822  87.8960 284.4516 0002199 116.6209 243.5146 13.14479732162924
ONEWEB-0663             
1 55823U 23029AD  26194.75099779 -.00000007  00000+0 -49067-4 0  9992
2 55823  87.9171 269.2118 0002128 128.8156 231.3168 13.20871009164658
ONEWEB-0664             
1 55824U 23029AE  26194.70582343  .00000000  00000+0 -33112-4 0  9998
2 55824  87.9170 269.1965 0001706  95.7546 264.3781 13.20772235164640
ONEWEB-0665             
1 55825U 23029AF  26194.79960358 -.00000097  00000+0 -29603-3 0  9990
2 55825  87.8965 284.4185 0002005 109.7907 250.3439 13.14502425162903
ONEWEB-0666             
1 55826U 23029AG  26194.77482719  .00000067  00000+0  13181-3 0  9998
2 55826  87.9174 269.1721 0002578  84.7916 275.3511 13.20772517164661
ONEWEB-0667             
1 55827U 23029AH  26194.76977551  .00000063  00000+0  12332-3 0  9994
2 55827  87.9198 269.1344 0001993 101.8345 258.3012 13.20773128164651
ONEWEB-0669             
1 55828U 23029AJ  26194.76472138 -.00000233  00000+0 -60507-3 0  9994
2 55828  87.9189 269.1453 0001711  86.7135 273.4194 13.20770889164659
ONEWEB-0670             
1 55829U 23029AK  26194.77740573  .00000254  00000+0  65073-3 0  9991
2 55829  87.8968 284.4390 0001667 101.6097 258.5219 13.14501740162929
ONEWEB-0671             
1 55830U 23029AL  26194.82682985  .00000000  00000+0 -32010-4 0  9997
2 55830  87.9193 299.6696 0001938 103.7160 256.4188 13.19726302162418
ONEWEB-0672             
1 55831U 23029AM  26194.75968044 -.00000011  00000+0 -58287-4 0  9990
2 55831  87.9192 269.1396 0002087  93.7469 266.3903 13.20769383164654
